start=new Date('2022-07-15T00:00:00.000Z').valueOf();
sats=[{"TIME_SYSTEM":"UTC","LAUNCH_DATE":"2021-12-18","BSTAR":"0.00039759000000","ECCENTRICITY":"0.00025020","RA_OF_ASC_NODE":"45.3070","ARG_OF_PERICENTER":"10.1434","FILE":"3513976","NORAD_CAT_ID":"50162","SITE":"AFWTR","MEAN_ELEMENT_THEORY":"SGP4","PERIOD":"91.281","MEAN_ANOMALY":"326.5551","DECAY_DATE":null,"MEAN_MOTION_DOT":"0.00067345","INCLINATION":"53.2043","PERIAPSIS":"335.725","OBJECT_NAME":"STARLINK-3303","SEMIMAJOR_AXIS":"6715.540","MEAN_MOTION_DDOT":"0.0000000000000","COUNTRY_CODE":"US","RCS_SIZE":"LARGE","GP_ID":"208136378","OBJECT_TYPE":"PAYLOAD","EPHEMERIS_TYPE":"0","TLE_LINE1":"1 50162U 21125G   22195.91667824  .00067345  00000-0  39759-3 0  9998","CENTER_NAME":"EARTH","REF_FRAME":"TEME","OBJECT_ID":"2021-125G","EPOCH":"2022-07-14T22:00:00.999936","APOAPSIS":"339.085","ELEMENT_SET_NO":"999","MEAN_MOTION":"15.77543472","CLASSIFICATION_TYPE":"U","TLE_LINE2":"2 50162  53.2043  45.3070 0002502  10.1434 326.5551 15.77543472  1300","REV_AT_EPOCH":"130"},{"LAUNCH_DATE":"2021-12-18","TIME_SYSTEM":"UTC","BSTAR":"-0.00014487000000","RA_OF_ASC_NODE":"108.6018","ECCENTRICITY":"0.00020810","ARG_OF_PERICENTER":"63.1945","FILE":"3513725","NORAD_CAT_ID":"50163","SITE":"AFWTR","MEAN_ELEMENT_THEORY":"SGP4","PERIOD":"95.438","MEAN_ANOMALY":"296.9260","DECAY_DATE":null,"INCLINATION":"53.2175","PERIAPSIS":"538.350","OBJECT_NAME":"STARLINK-3306","MEAN_MOTION_DOT":"-0.00002592","SEMIMAJOR_AXIS":"6917.925","MEAN_MOTION_DDOT":"0.0000000000000","GP_ID":"208106404","COUNTRY_CODE":"US","RCS_SIZE":"LARGE","REF_FRAME":"TEME","OBJECT_TYPE":"PAYLOAD","EPHEMERIS_TYPE":"0","TLE_LINE1":"1 50163U 21125H   22195.48235469 -.00002592  00000-0 -14487-3 0  9993","CENTER_NAME":"EARTH","EPOCH":"2022-07-14T11:34:35.445216","OBJECT_ID":"2021-125H","APOAPSIS":"541.230","REV_AT_EPOCH":"3531","ELEMENT_SET_NO":"999","MEAN_MOTION":"15.08825420","TLE_LINE2":"2 50163  53.2175 108.6018 0002081  63.1945 296.9260 15.08825420 35314","CLASSIFICATION_TYPE":"U"},{"MEAN_MOTION_DDOT":"0.0000000000000","GP_ID":"208105154","RCS_SIZE":"LARGE","COUNTRY_CODE":"US","PERIAPSIS":"537.984","INCLINATION":"53.2151","OBJECT_NAME":"STARLINK-3298","MEAN_MOTION_DOT":"-0.00003459","SEMIMAJOR_AXIS":"6917.910","APOAPSIS":"541.566","REV_AT_EPOCH":"3509","TLE_LINE2":"2 50165  53.2151 128.3163 0002589  63.6657 296.4600 15.08830278 35093","CLASSIFICATION_TYPE":"U","MEAN_MOTION":"15.08830278","ELEMENT_SET_NO":"999","REF_FRAME":"TEME","TLE_LINE1":"1 50165U 21125K   22195.54947320 -.00003459  00000-0 -19933-3 0  9992","CENTER_NAME":"EARTH","EPHEMERIS_TYPE":"0","OBJECT_TYPE":"PAYLOAD","EPOCH":"2022-07-14T13:11:14.484480","OBJECT_ID":"2021-125K","RA_OF_ASC_NODE":"128.3163","ECCENTRICITY":"0.00025890","LAUNCH_DATE":"2021-12-18","TIME_SYSTEM":"UTC","BSTAR":"-0.00019933000000","MEAN_ANOMALY":"296.4600","DECAY_DATE":null,"FILE":"3513725","ARG_OF_PERICENTER":"63.6657","PERIOD":"95.438","NORAD_CAT_ID":"50165","SITE":"AFWTR","MEAN_ELEMENT_THEORY":"SGP4"},{"BSTAR":"-0.00004252100000","TIME_SYSTEM":"UTC","LAUNCH_DATE":"2021-12-18","RA_OF_ASC_NODE":"117.9025","ECCENTRICITY":"0.00020870","MEAN_ELEMENT_THEORY":"SGP4","SITE":"AFWTR","NORAD_CAT_ID":"50166","PERIOD":"95.438","ARG_OF_PERICENTER":"55.9103","FILE":"3513962","DECAY_DATE":null,"MEAN_ANOMALY":"304.2087","SEMIMAJOR_AXIS":"6917.898","MEAN_MOTION_DOT":"-0.00000965","PERIAPSIS":"538.319","INCLINATION":"53.2170","OBJECT_NAME":"STARLINK-3305","COUNTRY_CODE":"US","RCS_SIZE":"LARGE","GP_ID":"208112703","MEAN_MOTION_DDOT":"0.0000000000000","OBJECT_ID":"2021-125L","EPOCH":"2022-07-14T15:19:45.731136","OBJECT_TYPE":"PAYLOAD","CENTER_NAME":"EARTH","TLE_LINE1":"1 50166U 21125L   22195.63872374 -.00000965  00000-0 -42521-4 0  9998","EPHEMERIS_TYPE":"0","REF_FRAME":"TEME","ELEMENT_SET_NO":"999","MEAN_MOTION":"15.08834378","TLE_LINE2":"2 50166  53.2170 117.9025 0002087  55.9103 304.2087 15.08834378 32111","CLASSIFICATION_TYPE":"U","REV_AT_EPOCH":"3211","APOAPSIS":"541.206"},{"LAUNCH_DATE":"2021-12-18","TIME_SYSTEM":"UTC","BSTAR":"0.00008091000000","ECCENTRICITY":"0.00031470","RA_OF_ASC_NODE":"127.1539","FILE":"3513976","ARG_OF_PERICENTER":"62.4040","NORAD_CAT_ID":"50167","SITE":"AFWTR","MEAN_ELEMENT_THEORY":"SGP4","PERIOD":"95.437","MEAN_ANOMALY":"297.7271","DECAY_DATE":null,"OBJECT_NAME":"STARLINK-3271","PERIAPSIS":"537.538","INCLINATION":"53.2176","MEAN_MOTION_DOT":"0.00001000","SEMIMAJOR_AXIS":"6917.850","MEAN_MOTION_DDOT":"0.0000000000000","GP_ID":"208136879","RCS_SIZE":"LARGE","COUNTRY_CODE":"US","REF_FRAME":"TEME","OBJECT_TYPE":"PAYLOAD","TLE_LINE1":"1 50167U 21125M   22195.80707340  .00001000  00000-0  80910-4 0  9991","EPHEMERIS_TYPE":"0","CENTER_NAME":"EARTH","EPOCH":"2022-07-14T19:22:11.141760","OBJECT_ID":"2021-125M","APOAPSIS":"541.892","REV_AT_EPOCH":"3508","ELEMENT_SET_NO":"999","MEAN_MOTION":"15.08849995","TLE_LINE2":"2 50167  53.2176 127.1539 0003147  62.4040 297.7271 15.08849995 35083","CLASSIFICATION_TYPE":"U"},{"REV_AT_EPOCH":"3518","TLE_LINE2":"2 50168  53.2163 118.5159 0002320  60.1813 299.9409 15.08825358 35182","CLASSIFICATION_TYPE":"U","ELEMENT_SET_NO":"999","MEAN_MOTION":"15.08825358","APOAPSIS":"541.395","EPOCH":"2022-07-14T12:03:40.764960","OBJECT_ID":"2021-125N","REF_FRAME":"TEME","CENTER_NAME":"EARTH","TLE_LINE1":"1 50168U 21125N   22195.50255515 -.00005077  00000-0 -30120-3 0  9998","EPHEMERIS_TYPE":"0","OBJECT_TYPE":"PAYLOAD","GP_ID":"208106904","COUNTRY_CODE":"US","RCS_SIZE":"LARGE","MEAN_MOTION_DDOT":"0.0000000000000","SEMIMAJOR_AXIS":"6917.925","INCLINATION":"53.2163","PERIAPSIS":"538.185","OBJECT_NAME":"STARLINK-3296","MEAN_MOTION_DOT":"-0.00005077","DECAY_DATE":null,"MEAN_ANOMALY":"299.9409","PERIOD":"95.438","MEAN_ELEMENT_THEORY":"SGP4","SITE":"AFWTR","NORAD_CAT_ID":"50168","FILE":"3513725","ARG_OF_PERICENTER":"60.1813","ECCENTRICITY":"0.00023200","RA_OF_ASC_NODE":"118.5159","BSTAR":"-0.00030120000000","LAUNCH_DATE":"2021-12-18","TIME_SYSTEM":"UTC"},{"GP_ID":"208105654","RCS_SIZE":"LARGE","COUNTRY_CODE":"US","MEAN_MOTION_DDOT":"0.0000000000000","SEMIMAJOR_AXIS":"6917.925","OBJECT_NAME":"STARLINK-3301","PERIAPSIS":"538.103","INCLINATION":"53.2177","MEAN_MOTION_DOT":"-0.00004292","REV_AT_EPOCH":"3514","MEAN_MOTION":"15.08825405","ELEMENT_SET_NO":"999","CLASSIFICATION_TYPE":"U","TLE_LINE2":"2 50169  53.2177 119.8591 0002439  67.5918 292.5332 15.08825405 35143","APOAPSIS":"541.477","EPOCH":"2022-07-14T04:59:45.640896","OBJECT_ID":"2021-125P","REF_FRAME":"TEME","OBJECT_TYPE":"PAYLOAD","TLE_LINE1":"1 50169U 21125P   22195.20816714 -.00004292  00000-0 -25178-3 0  9995","EPHEMERIS_TYPE":"0","CENTER_NAME":"EARTH","RA_OF_ASC_NODE":"119.8591","ECCENTRICITY":"0.00024390","BSTAR":"-0.00025178000000","LAUNCH_DATE":"2021-12-18","TIME_SYSTEM":"UTC","DECAY_DATE":null,"MEAN_ANOMALY":"292.5332","NORAD_CAT_ID":"50169","SITE":"AFWTR","MEAN_ELEMENT_THEORY":"SGP4","PERIOD":"95.438","ARG_OF_PERICENTER":"67.5918","FILE":"3513725"},{"MEAN_MOTION_DOT":"-0.00005476","INCLINATION":"53.2172","PERIAPSIS":"537.914","OBJECT_NAME":"STARLINK-3245","SEMIMAJOR_AXIS":"6917.918","MEAN_MOTION_DDOT":"0.0000000000000","RCS_SIZE":"LARGE","COUNTRY_CODE":"US","GP_ID":"208111015","TLE_LINE1":"1 50170U 21125Q   22195.49519966 -.00005476  00000-0 -32626-3 0  9998","CENTER_NAME":"EARTH","EPHEMERIS_TYPE":"0","OBJECT_TYPE":"PAYLOAD","REF_FRAME":"TEME","OBJECT_ID":"2021-125Q","EPOCH":"2022-07-14T11:53:05.250624","APOAPSIS":"541.651","CLASSIFICATION_TYPE":"U","TLE_LINE2":"2 50170  53.2172 118.5446 0002701  62.7406 297.3861 15.08827766 34697","ELEMENT_SET_NO":"999","MEAN_MOTION":"15.08827766","REV_AT_EPOCH":"3469","TIME_SYSTEM":"UTC","LAUNCH_DATE":"2021-12-18","BSTAR":"-0.00032626000000","ECCENTRICITY":"0.00027010","RA_OF_ASC_NODE":"118.5446","ARG_OF_PERICENTER":"62.7406","FILE":"3513886","PERIOD":"95.438","NORAD_CAT_ID":"50170","SITE":"AFWTR","MEAN_ELEMENT_THEORY":"SGP4","MEAN_ANOMALY":"297.3861","DECAY_DATE":null},{"ECCENTRICITY":"0.00023620","RA_OF_ASC_NODE":"118.4815","BSTAR":"0.00002141000000","LAUNCH_DATE":"2021-12-18","TIME_SYSTEM":"UTC","DECAY_DATE":null,"MEAN_ANOMALY":"298.8486","MEAN_ELEMENT_THEORY":"SGP4","SITE":"AFWTR","NORAD_CAT_ID":"50171","PERIOD":"95.438","FILE":"3513725","ARG_OF_PERICENTER":"61.2743","GP_ID":"208106154","COUNTRY_CODE":"US","RCS_SIZE":"LARGE","MEAN_MOTION_DDOT":"0.0000000000000","SEMIMAJOR_AXIS":"6917.916","PERIAPSIS":"538.147","OBJECT_NAME":"STARLINK-3286","INCLINATION":"53.2183","MEAN_MOTION_DOT":"0.00000052","REV_AT_EPOCH":"3518","ELEMENT_SET_NO":"999","MEAN_MOTION":"15.08828418","CLASSIFICATION_TYPE":"U","TLE_LINE2":"2 50171  53.2183 118.4815 0002362  61.2743 298.8486 15.08828418 35189","APOAPSIS":"541.415","EPOCH":"2022-07-14T12:14:16.820160","OBJECT_ID":"2021-125R","REF_FRAME":"TEME","OBJECT_TYPE":"PAYLOAD","CENTER_NAME":"EARTH","TLE_LINE1":"1 50171U 21125R   22195.50991690  .00000052  00000-0  21410-4 0  9992","EPHEMERIS_TYPE":"0"},{"RA_OF_ASC_NODE":"118.5996","ECCENTRICITY":"0.00029760","TIME_SYSTEM":"UTC","LAUNCH_DATE":"2021-12-18","BSTAR":"-0.00011303000000","MEAN_ANOMALY":"303.2203","DECAY_DATE":null,"FILE":"3513725","ARG_OF_PERICENTER":"56.9075","PERIOD":"95.439","SITE":"AFWTR","NORAD_CAT_ID":"50172","MEAN_ELEMENT_THEORY":"SGP4","MEAN_MOTION_DDOT":"0.0000000000000","RCS_SIZE":"LARGE","COUNTRY_CODE":"US","GP_ID":"208106405","MEAN_MOTION_DOT":"-0.00002086","PERIAPSIS":"537.745","INCLINATION":"53.2181","OBJECT_NAME":"STARLINK-3287","SEMIMAJOR_AXIS":"6917.939","APOAPSIS":"541.863","CLASSIFICATION_TYPE":"U","TLE_LINE2":"2 50172  53.2181 118.5996 0002976  56.9075 303.2203 15.08820797 35213","MEAN_MOTION":"15.08820797","ELEMENT_SET_NO":"999","REV_AT_EPOCH":"3521","CENTER_NAME":"EARTH","TLE_LINE1":"1 50172U 21125S   22195.48784413 -.00002086  00000-0 -11303-3 0  9993","EPHEMERIS_TYPE":"0","OBJECT_TYPE":"PAYLOAD","REF_FRAME":"TEME","OBJECT_ID":"2021-125S","EPOCH":"2022-07-14T11:42:29.732832"}];
